[
  {
    "OBJECT_NAME": "STARLINK-32465",
    "OBJECT_ID": "24196K",
    "EPOCH": "2025-11-11T05:09:44.357472",
    "MEAN_MOTION": 15.3018992,
    "ECCENTRICITY": 0.0001182,
    "INCLINATION": 53.1607,
    "RA_OF_ASC_NODE": 291.9252,
    "ARG_OF_PERICENTER": 78.449,
    "MEAN_ANOMALY": 281.6643,
    "EPHEMERIS_TYPE": 0,
    "CLASSIFICATION_TYPE": "U",
    "NORAD_CAT_ID": 61716,
    "ELEMENT_SET_NO": 999,
    "REV_AT_EPOCH": 5901,
    "BSTAR": 8.0036e-05,
    "MEAN_MOTION_DOT": 2.011e-05,
    "MEAN_MOTION_DDOT": 0.0,
    "TLE_LINE1": "1 61716U 24196K   25315.21509673  .00002011  00000+0  80036-4 0  9996",
    "TLE_LINE2": "2 61716  53.1607 291.9252 0001182  78.4490 281.6643 15.30189920 59012",
    "COMMENT": "Grouped by shell and plane from TLE"
  },
  {
    "OBJECT_NAME": "STARLINK-32457",
    "OBJECT_ID": "24196L",
    "EPOCH": "2025-11-11T05:47:34.288512",
    "MEAN_MOTION": 15.30189781,
    "ECCENTRICITY": 0.0001183,
    "INCLINATION": 53.1613,
    "RA_OF_ASC_NODE": 291.3746,
    "ARG_OF_PERICENTER": 98.9993,
    "MEAN_ANOMALY": 261.1142,
    "EPHEMERIS_TYPE": 0,
    "CLASSIFICATION_TYPE": "U",
    "NORAD_CAT_ID": 61717,
    "ELEMENT_SET_NO": 999,
    "REV_AT_EPOCH": 5902,
    "BSTAR": 4.5691e-05,
    "MEAN_MOTION_DOT": 9.94e-06,
    "MEAN_MOTION_DDOT": 0.0,
    "TLE_LINE1": "1 61717U 24196L   25315.24136908  .00000994  00000+0  45691-4 0  9993",
    "TLE_LINE2": "2 61717  53.1613 291.3746 0001183  98.9993 261.1142 15.30189781 59021",
    "COMMENT": "Grouped by shell and plane from TLE"
  },
  {
    "OBJECT_NAME": "STARLINK-32344",
    "OBJECT_ID": "24196N",
    "EPOCH": "2025-11-11T04:56:03.759648",
    "MEAN_MOTION": 15.30191435,
    "ECCENTRICITY": 0.0001279,
    "INCLINATION": 53.1611,
    "RA_OF_ASC_NODE": 291.8629,
    "ARG_OF_PERICENTER": 80.4019,
    "MEAN_ANOMALY": 279.7127,
    "EPHEMERIS_TYPE": 0,
    "CLASSIFICATION_TYPE": "U",
    "NORAD_CAT_ID": 61719,
    "ELEMENT_SET_NO": 999,
    "REV_AT_EPOCH": 5901,
    "BSTAR": 6.7833e-05,
    "MEAN_MOTION_DOT": 1.65e-05,
    "MEAN_MOTION_DDOT": 0.0,
    "TLE_LINE1": "1 61719U 24196N   25315.20559907  .00001650  00000+0  67833-4 0  9991",
    "TLE_LINE2": "2 61719  53.1611 291.8629 0001279  80.4019 279.7127 15.30191435 59013",
    "COMMENT": "Grouped by shell and plane from TLE"
  },
  {
    "OBJECT_NAME": "STARLINK-32322",
    "OBJECT_ID": "24196P",
    "EPOCH": "2025-11-11T05:14:17.836800",
    "MEAN_MOTION": 15.30192749,
    "ECCENTRICITY": 0.0001259,
    "INCLINATION": 53.161,
    "RA_OF_ASC_NODE": 291.9441,
    "ARG_OF_PERICENTER": 83.2442,
    "MEAN_ANOMALY": 276.8702,
    "EPHEMERIS_TYPE": 0,
    "CLASSIFICATION_TYPE": "U",
    "NORAD_CAT_ID": 61720,
    "ELEMENT_SET_NO": 999,
    "REV_AT_EPOCH": 5901,
    "BSTAR": 7.2705e-05,
    "MEAN_MOTION_DOT": 1.794e-05,
    "MEAN_MOTION_DDOT": 0.0,
    "TLE_LINE1": "1 61720U 24196P   25315.21826200  .00001794  00000+0  72705-4 0  9990",
    "TLE_LINE2": "2 61720  53.1610 291.9441 0001259  83.2442 276.8702 15.30192749 59012",
    "COMMENT": "Grouped by shell and plane from TLE"
  },
  {
    "OBJECT_NAME": "STARLINK-32469",
    "OBJECT_ID": "24196Q",
    "EPOCH": "2025-11-11T07:12:30.155328",
    "MEAN_MOTION": 15.3019165,
    "ECCENTRICITY": 0.0001331,
    "INCLINATION": 53.1617,
    "RA_OF_ASC_NODE": 291.0324,
    "ARG_OF_PERICENTER": 101.6082,
    "MEAN_ANOMALY": 258.5068,
    "EPHEMERIS_TYPE": 0,
    "CLASSIFICATION_TYPE": "U",
    "NORAD_CAT_ID": 61721,
    "ELEMENT_SET_NO": 999,
    "REV_AT_EPOCH": 5903,
    "BSTAR": 0.00013284,
    "MEAN_MOTION_DOT": 3.576e-05,
    "MEAN_MOTION_DDOT": 0.0,
    "TLE_LINE1": "1 61721U 24196Q   25315.30034902  .00003576  00000+0  13284-3 0  9997",
    "TLE_LINE2": "2 61721  53.1617 291.0324 0001331 101.6082 258.5068 15.30191650 59031",
    "COMMENT": "Grouped by shell and plane from TLE"
  },
  {
    "OBJECT_NAME": "STARLINK-32438",
    "OBJECT_ID": "24196R",
    "EPOCH": "2025-11-11T05:05:10.700160",
    "MEAN_MOTION": 15.30200013,
    "ECCENTRICITY": 0.0001259,
    "INCLINATION": 53.1617,
    "RA_OF_ASC_NODE": 291.9042,
    "ARG_OF_PERICENTER": 79.6988,
    "MEAN_ANOMALY": 280.4155,
    "EPHEMERIS_TYPE": 0,
    "CLASSIFICATION_TYPE": "U",
    "NORAD_CAT_ID": 61722,
    "ELEMENT_SET_NO": 999,
    "REV_AT_EPOCH": 5901,
    "BSTAR": 6.631700000000001e-05,
    "MEAN_MOTION_DOT": 1.605e-05,
    "MEAN_MOTION_DDOT": 0.0,
    "TLE_LINE1": "1 61722U 24196R   25315.21192940  .00001605  00000+0  66317-4 0  9992",
    "TLE_LINE2": "2 61722  53.1617 291.9042 0001259  79.6988 280.4155 15.30200013 59019",
    "COMMENT": "Grouped by shell and plane from TLE"
  },
  {
    "OBJECT_NAME": "STARLINK-32528",
    "OBJECT_ID": "24196T",
    "EPOCH": "2025-11-11T03:44:48.272064",
    "MEAN_MOTION": 15.30202311,
    "ECCENTRICITY": 0.0001486,
    "INCLINATION": 53.1602,
    "RA_OF_ASC_NODE": 292.2672,
    "ARG_OF_PERICENTER": 102.5134,
    "MEAN_ANOMALY": 257.6033,
    "EPHEMERIS_TYPE": 0,
    "CLASSIFICATION_TYPE": "U",
    "NORAD_CAT_ID": 61724,
    "ELEMENT_SET_NO": 999,
    "REV_AT_EPOCH": 5780,
    "BSTAR": 0.00023166999999999998,
    "MEAN_MOTION_DOT": 6.509e-05,
    "MEAN_MOTION_DDOT": 0.0,
    "TLE_LINE1": "1 61724U 24196T   25315.15611426  .00006509  00000+0  23167-3 0  9995",
    "TLE_LINE2": "2 61724  53.1602 292.2672 0001486 102.5134 257.6033 15.30202311 57808",
    "COMMENT": "Grouped by shell and plane from TLE"
  },
  {
    "OBJECT_NAME": "STARLINK-32573",
    "OBJECT_ID": "24196U",
    "EPOCH": "2025-11-11T04:51:30.145536",
    "MEAN_MOTION": 15.30189662,
    "ECCENTRICITY": 0.00014,
    "INCLINATION": 53.1614,
    "RA_OF_ASC_NODE": 291.8424,
    "ARG_OF_PERICENTER": 119.5475,
    "MEAN_ANOMALY": 240.5665,
    "EPHEMERIS_TYPE": 0,
    "CLASSIFICATION_TYPE": "U",
    "NORAD_CAT_ID": 61725,
    "ELEMENT_SET_NO": 999,
    "REV_AT_EPOCH": 5901,
    "BSTAR": 7.1668e-05,
    "MEAN_MOTION_DOT": 1.763e-05,
    "MEAN_MOTION_DDOT": 0.0,
    "TLE_LINE1": "1 61725U 24196U   25315.20243224  .00001763  00000+0  71668-4 0  9996",
    "TLE_LINE2": "2 61725  53.1614 291.8424 0001400 119.5475 240.5665 15.30189662 59014",
    "COMMENT": "Grouped by shell and plane from TLE"
  },
  {
    "OBJECT_NAME": "STARLINK-32478",
    "OBJECT_ID": "24196V",
    "EPOCH": "2025-11-11T06:14:55.472064",
    "MEAN_MOTION": 15.30177752,
    "ECCENTRICITY": 0.0001293,
    "INCLINATION": 53.1617,
    "RA_OF_ASC_NODE": 291.4936,
    "ARG_OF_PERICENTER": 93.6726,
    "MEAN_ANOMALY": 266.4423,
    "EPHEMERIS_TYPE": 0,
    "CLASSIFICATION_TYPE": "U",
    "NORAD_CAT_ID": 61726,
    "ELEMENT_SET_NO": 999,
    "REV_AT_EPOCH": 5902,
    "BSTAR": 0.00013053999999999998,
    "MEAN_MOTION_DOT": 3.506e-05,
    "MEAN_MOTION_DDOT": 0.0,
    "TLE_LINE1": "1 61726U 24196V   25315.26036426  .00003506  00000+0  13054-3 0  9998",
    "TLE_LINE2": "2 61726  53.1617 291.4936 0001293  93.6726 266.4423 15.30177752 59020",
    "COMMENT": "Grouped by shell and plane from TLE"
  },
  {
    "OBJECT_NAME": "STARLINK-32511",
    "OBJECT_ID": "24196W",
    "EPOCH": "2025-11-11T06:05:46.776768",
    "MEAN_MOTION": 15.30235551,
    "ECCENTRICITY": 0.0001494,
    "INCLINATION": 53.162,
    "RA_OF_ASC_NODE": 291.4533,
    "ARG_OF_PERICENTER": 84.4198,
    "MEAN_ANOMALY": 275.6973,
    "EPHEMERIS_TYPE": 0,
    "CLASSIFICATION_TYPE": "U",
    "NORAD_CAT_ID": 61727,
    "ELEMENT_SET_NO": 999,
    "REV_AT_EPOCH": 5902,
    "BSTAR": 0.00049062,
    "MEAN_MOTION_DOT": 0.00014215,
    "MEAN_MOTION_DDOT": 0.0,
    "TLE_LINE1": "1 61727U 24196W   25315.25401362  .00014215  00000+0  49062-3 0  9990",
    "TLE_LINE2": "2 61727  53.1620 291.4533 0001494  84.4198 275.6973 15.30235551 59026",
    "COMMENT": "Grouped by shell and plane from TLE"
  },
  {
    "OBJECT_NAME": "STARLINK-32475",
    "OBJECT_ID": "24196X",
    "EPOCH": "2025-11-11T05:56:41.149536",
    "MEAN_MOTION": 15.30194922,
    "ECCENTRICITY": 0.000154,
    "INCLINATION": 53.162,
    "RA_OF_ASC_NODE": 291.4125,
    "ARG_OF_PERICENTER": 93.6277,
    "MEAN_ANOMALY": 266.49,
    "EPHEMERIS_TYPE": 0,
    "CLASSIFICATION_TYPE": "U",
    "NORAD_CAT_ID": 61728,
    "ELEMENT_SET_NO": 999,
    "REV_AT_EPOCH": 5902,
    "BSTAR": 7.286e-05,
    "MEAN_MOTION_DOT": 1.799e-05,
    "MEAN_MOTION_DDOT": 0.0,
    "TLE_LINE1": "1 61728U 24196X   25315.24769849  .00001799  00000+0  72860-4 0  9993",
    "TLE_LINE2": "2 61728  53.1620 291.4125 0001540  93.6277 266.4900 15.30194922 59020",
    "COMMENT": "Grouped by shell and plane from TLE"
  },
  {
    "OBJECT_NAME": "STARLINK-32442",
    "OBJECT_ID": "24196Y",
    "EPOCH": "2025-11-11T06:01:14.633184",
    "MEAN_MOTION": 15.30195782,
    "ECCENTRICITY": 0.0001538,
    "INCLINATION": 53.1618,
    "RA_OF_ASC_NODE": 291.4326,
    "ARG_OF_PERICENTER": 89.7948,
    "MEAN_ANOMALY": 270.3229,
    "EPHEMERIS_TYPE": 0,
    "CLASSIFICATION_TYPE": "U",
    "NORAD_CAT_ID": 61729,
    "ELEMENT_SET_NO": 999,
    "REV_AT_EPOCH": 5902,
    "BSTAR": 9.4719e-05,
    "MEAN_MOTION_DOT": 2.447e-05,
    "MEAN_MOTION_DDOT": 0.0,
    "TLE_LINE1": "1 61729U 24196Y   25315.25086381  .00002447  00000+0  94719-4 0  9996",
    "TLE_LINE2": "2 61729  53.1618 291.4326 0001538  89.7948 270.3229 15.30195782 59022",
    "COMMENT": "Grouped by shell and plane from TLE"
  },
  {
    "OBJECT_NAME": "STARLINK-34849",
    "OBJECT_ID": "25232A",
    "EPOCH": "2025-11-11T05:58:38.412480",
    "MEAN_MOTION": 15.39636111,
    "ECCENTRICITY": 0.0001588,
    "INCLINATION": 53.1605,
    "RA_OF_ASC_NODE": 296.0549,
    "ARG_OF_PERICENTER": 90.4523,
    "MEAN_ANOMALY": 269.6664,
    "EPHEMERIS_TYPE": 0,
    "CLASSIFICATION_TYPE": "U",
    "NORAD_CAT_ID": 66005,
    "ELEMENT_SET_NO": 999,
    "REV_AT_EPOCH": 526,
    "BSTAR": 0.0016293,
    "MEAN_MOTION_DOT": 0.00065367,
    "MEAN_MOTION_DDOT": 0.0,
    "TLE_LINE1": "1 66005U 25232A   25315.24905570  .00065367  00000+0  16293-2 0  9998",
    "TLE_LINE2": "2 66005  53.1605 296.0549 0001588  90.4523 269.6664 15.39636111  5267",
    "COMMENT": "Grouped by shell and plane from TLE"
  }
]